[{"OBJECT_NAME":"STARLINK-33854","OBJECT_ID":"2025-083B","EPOCH":"2026-03-09T04:40:30.729504","MEAN_MOTION":15.27547745,"ECCENTRICITY":0.00012418,"INCLINATION":43.0017,"RA_OF_ASC_NODE":7.7991,"ARG_OF_PERICENTER":252.889,"MEAN_ANOMALY":107.1826,"EPHEMERIS_TYPE":0,"CLASSIFICATION_TYPE":"U","NORAD_CAT_ID":63635,"ELEMENT_SET_NO":999,"REV_AT_EPOCH":4999,"BSTAR":0.0016212365,"MEAN_MOTION_DOT":0.00044577,"MEAN_MOTION_DDOT":0},{"OBJECT_NAME":"PUCP-SAT 1","OBJECT_ID":"2013-066AC","EPOCH":"2026-03-09T22:02:13.763904","MEAN_MOTION":15.29426022,"ECCENTRICITY":0.00136836,"INCLINATION":97.5787,"RA_OF_ASC_NODE":61.0032,"ARG_OF_PERICENTER":300.1183,"MEAN_ANOMALY":59.87,"EPHEMERIS_TYPE":0,"CLASSIFICATION_TYPE":"U","NORAD_CAT_ID":39442,"ELEMENT_SET_NO":999,"REV_AT_EPOCH":66907,"BSTAR":0.00088755185,"MEAN_MOTION_DOT":0.00025373,"MEAN_MOTION_DDOT":0}]
